locationid,streetaddress,city,zipcode,county
1023847778,905 60th St. Nw ,Willmar,56201,Kandiyohi
1031559887,9913 110th St,Little Falls,56345,Morrison
1293618376,3114 River Meadows Dr,Mankato,56001,Blue Earth
1307169316,10400 185th St N,Marine On St Croix,55047,Washington
1031562124,17312 153rd Street,Little Falls,56345,Morrison
1116070144,37096 630th Street,Zumbro Falls,55991,Wabasha
1013040948,51278 Lakeland Ln,Elysian,56028,Le Sueur
1091721539,14471 Welch Trail ,Welch,55089,Goodhue
1293618391,3230 Meadowview Lane,Mankato,56001,Blue Earth
1293548407,21875 E HEIGHT OF LAND DR,Detroit Lakes,56501,Becker
1112848325,30319 WISCOY RIDGE RD,Winona,55987,Winona
1137419737,65494 GREAT RIVER RD,Jacobson,55752,Aitkin
1031559978,14091 210th Ave,Little Falls,56345,Morrison
1315221457,8741 85th St NW,Pine Island,55963,Olmsted
1023862561,7900 210th Ave SE,Lake Lillian,56253,Kandiyohi
1345913711,3581 Prindle Rd,Duluth,55803,St. Louis
1031566262,13156 190th Street ,Little Falls,56345,Morrison
1031570458,24564 highway 25,Pierz,56364,Morrison
1109662041,51163 790th St,Jackson,56143,Jackson
1013040913,22088 Warner Lane,Elysian,56028,Le Sueur
1604670202,11055 105th Ave NE,Spicer,56288,Kandiyohi
1091704150,10102 Sunrise Way,Cannon Falls,55009,Goodhue
1100317591,33809 Lupine Dr,Cushing,56443,Morrison
1013055327,17288 Hidden Harbor LN,Waterville,56096,Le Sueur
1307165470,8925 SCANDIA TRL N,Forest Lake,55025,Washington
1390597253,3462 N Alden Lake Rd,Duluth,55803,St. Louis
1091722138,7850 County 12 BLVD,Kenyon,55946,Goodhue
1114816047,7049 Browns Lane,Brainerd,56401,Crow Wing
1013833328,8260 Maplewood Rd,Cologne,55322,St. Louis
1287568579,4658 175th Ave,Cottonwood,56229,Yellow Medicine
1293618409,3295 Meadowview Ln ,Mankato,56001,Blue Earth
1086620184,"65291 , 225th St ",Litchfield,55355,Meeker
1139673367,24705 Essex Avenue,Farmington,55024,Dakota
1100318075,27504 350th St,Browerville,56438,Todd
1013040322,21621 Wagner Bay Lane,Elysian,56028,Le Sueur
1293618394,3115 River Meadows Dr,Mankato,56001,Blue Earth
1345887097,3981 hwy 73,Floodwood,55736,St. Louis
1345913726,3605 Prindle Rd,Rice Lake,55803,St. Louis
1042390902,52640 Co Rd 44		,Bingham Lake,56118,Cottonwood
1100318171,26045 County 18,Browerville,56438,Todd
1100314393,12689 county 11,Sauk Centre,56378,Todd
1100317416,35610 Leisure Dr ,Cushing,56443,Todd
1293548195,20961 E HEIGHT OF LAND DR,Detroit Lakes,56501,Becker
1139686939,31615 Dresden Ave,Northfield,55057,Dakota
1013040765,50670 235th Ave,Elysian,56028,Le Sueur
1013839913,14915 Ingram Trail,Norwood Young America,55368,Carver
1345971057,10383 hwy 23,Orr,55771,St. Louis
1091720610,16481 Circle Drive,Welch,55089,Goodhue
1038064281,46261 County Road 13,Saint Peter,56082,Nicollet
1031560374,13652 100th ave,Little Falls,56345,Morrison
1031556626,33308 173 st,Pierz,56364,Morrison
1114859125,19373 state hwy 6,Deerwood,56444,Crow Wing
1307169324,10710 185th St N,Marine St Crx,55047,Washington
1091714570,23576 320th St,Red Wing,55066,Goodhue
1293548199,39220 STATE HIGHWAY 34,Detroit Lakes,56501,Becker
1345872202,1538 torgeson rd,Duluth,55804,St. Louis
1100322401,15565 county 65,Long Prairie,56347,Todd
1293642605,48658 235TH ST,New Ulm,56073,Blue Earth
1315219000,6208 county road 103 ne,Byron,55920,St. Louis
1013850646,15375 County Road 122,Watertown,55388,Carver
1091711200,42476 highway 246 boulevard,Nerstrand,55053,Goodhue
1042387927,40504 440th Ave,Windom,56101,Cottonwood
1114859862,15848 Olen Trail,Deerwood,56444,Crow Wing
1345907452,9078 Highway 135,Tower,55790,St. Louis
1287568443,1695 490th Street,Cottonwood,56229,Yellow Medicine
1293618378,3109 Rider Meadows Dr,Mankato,56001,Blue Earth
1109666556,77380 US HWY71,Jackson,56143,Jackson
1413813241,15445 210th Street,Hutchinson,55350,McLeod
1013833892,13045 Market Ave,Cologne,55387,Carver
1100317457,35171 Meadowlark Drive,Cushing,56443,Todd
1091701862,35333 County 24 Blvd,Cannon Falls,55009,Goodhue
1302377315,14214 Lexington Ave NE,Ham Lake,55304,Anoka
1038067546,38579 413th Avenue,Saint Peter,56082,Nicollet
1062148029,43596 EAST ELYSIAN LK RD,Janesville,56048,Waseca
1100316332,21457 260th St,Long Prairie,56347,Todd
1293804061,1378 Deer Way SW,Brainerd,56401,Cass
1605689350,25879 Morgan ave n,Chisago City,55013,Chisago
1100311192,27823 151st Ave,Eagle Bend,56446,Todd
1025455884,24701 Logan Ave,New Market Township,55044,Scott
1013833132,9250 Johnson Dr,Cologne,55322,Carver
1031573142,22395 320th ave,Pierz,56364,Morrison
1293563423,38710 HEIGHT OF LAND RD,Detroit Lakes,56501,Becker
1100316295,17643 256th Street,Long Prairie,56347,Todd
1136787251,19767 Balentine Rd,Caledonia,55921,Houston
1139685439,4950 220th St W,Farmington,55024,Dakota
1031573660,9840 Iris Road,Royalton,56373,Morrison
1314222277,6255 70th Street SW,Waverly,55390,Wright
1023859166,17930 Highway 12 NE,Atwater,56209,Kandiyohi
1287544990,9 Robbins Drive,Tracy,56175,Murray
1604670104,6788 150th Ave NW,New London,56273,Kandiyohi
1031570505,22542 275th Ave,Pierz,56364,Morrison
1031571185,33356 163rd ST,Pierz,56364,Morrison
1137438678,32427 360th st.,Aitkin,56431,Aitkin
1287445663,27615 665th Ave,Dexter,55926,Mower
1013869877,20432 150th st ne,Thief River Falls,56701,Pennington
1287572830,4939 Highway 212,Montevideo,56265,Yellow Medicine
1013047740,36300 Ottawa Rd,Le Sueur,56058,Le Sueur
1042386106,23104 county road 5,Lamberton,56152,Cottonwood
1112851683,26524 Brook Dr,Minnesota City,55959,Winona
1112864193,23725 County Road 122,Winona,55987,Winona
1126476459,6427 570th St ,Dumont,56236,Traverse
1605532325,5178 Otter River Rd,Duluth,55803,St. Louis
1013040896,1062 Lake Francis Ln,Elysian,56028,Le Sueur
1062140934,16249 368th Ave,Waseca,56093,Waseca
1114816080,7114 Browns Ln,Brainerd,56401,Crow Wing
1013852576,19015 Market Ave,Belle Plaine,56011,Carver
1031562450,12982 Haven Rd,Little Falls,56345,Morrison
1100317385,37903 Norris Rd,Cushing,56443,Todd
1527879916,35172 368th St,Saint Peter,56082,Nicollet
1091707131,7087 Eldorado Court,Cannon Falls,55009,Goodhue
1137420094,26538 362ND LN,Aitkin,56431,Aitkin
1112853006,10832 Fischer Hill Drive,Plainview,55964,Winona
1013829229,14730 Highway 7,Mayer,55360,Carver
1139672576,10451 320th Street West,Northfield,55057,Dakota
1031562106,17347 153rd Street,Little Falls,56345,Morrison
1100314864,22391 GATEWAY DR,Osakis,56360,Todd
1013839399,16775 Co Rd 34,Norwood Young America,55368,Carver
1315211911,6151 County Rd 105 NW,Byron,55920,Olmsted
1100314862,22303 GATEWAY DR,Osakis,56360,Todd
1013055326,49892 Basswood Lane,Waterville,56096,Le Sueur
1013871038,13962 120th st ne ,Thief River Falls,56701,Pennington
1100317609,31581 Longbow Drive,Cushing,56433,Todd
1451616968,6246 County Road 103 NW,Byron,55920,Olmsted
1293563429,38908 HEIGHT OF LAND RD,Detroit Lakes,56501,Becker
1314233158,11480 5th Street NW,Cokato,55321,Wright
1013839236,18625 122nd Street,Norwood Young America,55368,Carver
1013833078,9790 County Road 52,Belle Plaine,56011,Carver
1293563438,38882 HEIGHT OF LAND RD,Detroit Lakes,56501,Becker
1307159842,6495 Ideal Ave N,Saint Paul,55115,Washington
1100318069,26997 County 18 ,Browerville,56438,Todd
1114858259,24231 Deerwood Ln,Deerwood,56444,Crow Wing
1413816040,28189 223rd St.,Pierz,56364,Morrison
1013044587,41912 205th Avenue,Le Center,56057,Le Sueur
1063357664,62680 174th Avenue,Dodge Center,55927,Dodge
1018923617,266 200th St S,Hawley,56549,Clay
1390634742,23090 120th st SE ,Lake Lillian,56253,Kandiyohi
1293549245,22564 E Height of Land Dr,Detroit Lakes,56501,Becker
1528303255,31905 County 16,Cushing,56443,Todd
1063358955,22069 710th St,Hayfield,55940,Dodge
1293639065,20989 610th Ave,Eagle Lake,56024,Blue Earth
1013848812,4365 Quaas Ave,Watertown,55388,Carver
1528461376,9071 Deer Drive,Sturgeon Lake,55783,Pine
1137419414,24223 700th Ln,Jacobson,55752,Aitkin
1116068355,25566 Highway 60,Wabasha,55981,Wabasha
1062141065,36579 110th Street ,Waseca,56093,Waseca
1114880869,23517 County Road 137,Nisswa,56468,Crow Wing
1013837231,16250 County Road 32,Young America,55397,Carver
1019738448,474 80th Ave ,Dunnell,56127,Martin
1031579551,24552 155th Ave,Fort Ripley,56449,Morrison
1293548406,21744 E HEIGHT OF LAND DR,Detroit Lakes,56501,Becker
1100316369,24822 185TH AVE,Long Prairie,56347,Todd
1091715379,19373 315th Street,Red Wing,55066,Goodhue
1029526210,5740 Murphy Lake Road,Brimson,55602,Lake
1121284662,693 60th Ave,Pipestone,56164,Pipestone
1100317621,33869 321st ,Cushing,56443,Todd
1013043280,44757 211th Avenue ,Le Center,56057,Le Sueur
1013839012,17355 78th Street,New Germany,55367,Carver
1100315884,21529 State Highway 287,Long Prairie,56347,Todd
1091716913,28558 County 53 Blvd,Red Wing,55066,Goodhue
1135264363,36405 Kost Trl,North Branch,55056,Chisago
1013054614,31889 Dog Creek Rd,Cleveland,56017,Le Sueur
1013817032,17412 30th Street,Mayer,55360,Carver
1091706590,6893 319th Street Way,Cannon Falls,55009,Goodhue
1114861612,25457 Blackbear Dr.,Deerwood,56444,Crow Wing
1013055079,18990 Westbay Ln,Waterville,56096,Le Sueur
1049749803,12017 160th Street W,Kilkenny,56052,Rice
1029517681,6373 Wanless Rd,Isabella,55607,Lake
1100317411,35031 Leisure Dr.,Cushing,56443,Todd
1139686098,8751 330th st w,Northfield,55057,Dakota
1082372207,595 Pacific Ave,Benson,56215,Swift
1031559403,12124 200th St,Little Falls,56345,Morrison
1345942593,11014 Highway 65,Angora,55703,St. Louis
1101175595,1150 280th St,Minneota,56264,Lyon
1029522264,13675 Deer Rd.,Ely,55731,Lake
1029510192,1992 Moen Rd,Two Harbors,55616,Lake
1307166233,13630 116th St N,Stillwater,55082,Washington
2868,16385 cty rd122,Mayer,55360,Carver
1013837476,16375 cty rd122,Mayer,55360,Carver
1086623908,23834 580th Avenue,Litchfield,55355,Meeker
1109665134,77396 us hwy 71,Jackson,56143,Jackson
1019734113,1496 190th Ave,Fairmont,56031,Martin
1307182023,11233 Neal Ave. N,Stillwater,55082,Washington
1019726254,1225 200TH ST,Trimont,56176,Martin
1293551009,"29898, Mchugh Rd",Frazee,56544,Becker
1013055421,46492 Cannon River Road,Waterville,56096,Le Sueur
1091721523,26175 160th Avenue Way,Welch,55089,Goodhue
1112850301,20022 Trestle Dr.,Lewiston,55952,Winona
1114839595,6151 Paris Road,Baxter,56425,Crow Wing
1031560551,18484 Hwy 10,Little Falls,56345,Morrison
1293618401,105 Limestone Ln,Mankato,56001,Blue Earth
1013055901,17009 Dickenson Lane,Waterville,56096,Le Sueur
1112860052,26123 Steinbauer Drive,Minnesota City,55959,Winona
1293563421,38850 HEIGHT OF LAND RD,Detroit Lakes,56501,Becker
1013852169,17200 104TH ST,Norwood Young America,55397,Carver
1013042837,1271 Le Center St,Le Center,56057,Le Sueur
1013849423,12480 52nd Street,Mayer,55360,Carver
1302407547,8140 173rd Ave NW,Ramsey,55303,Anoka
1302471946,23220 Jackson St. NE,East Bethel,55005,Anoka
1013037883,47863 243rd Lane,Elysian,56028,Le Sueur
1314222193,7304 70th Street SW,Howard Lake,55349,Wright
1100317628,33261 Loon Drive,Cushing,56443,Todd
1112851680,26397 Brook Dr,Minnesota City,55959,Winona
1038065922,37764 State Highway 22,Saint Peter,56082,Nicollet
1013037852,28717 440th Street,Cleveland,56017,Le Sueur
1605532436,5106 OTTER RIVER RD,Duluth,55803,St. Louis
1605194778,29944 203rd St,Pierz,56364,Morrison
1137418533,62132 GREAT RIVER RD,Jacobson,55752,Aitkin
1013843980,11184 66th Street,Waconia,55387,Carver
1100314858,22221 GATEWAY DR,Osakis,56360,Todd
1013047182,30165 pumpkin Hill Road ,Le Sueur,56058,Le Sueur
1031556881,20193 335th ave,Hillman,56338,Morrison
1413832329,4735 Breezy Point Road ,Duluth,55803,St. Louis
1139633497,1120 Alaureate Court,Inver Grove Heights,55077,Dakota
1287449768,59140 170th Street,Rose Creek,55970,Mower
1293618358,3273 Meadowview Ln,Mankato,56001,Blue Earth
1604035954,30427 670th St,Lake City,55041,Wabasha
1112864229,23407 Homer Valley Rd,Winona,55987,Winona
1031566459,13418 140th ave,Little Falls,56345,Morrison
1135261834,12870 410th Street,North Branch,55056,Chisago
1100313986,27347 225th Ave,Long Prairie,56347,Todd
1013040591,21377 Tetonka Lake Road,Waterville,56096,Le Sueur
1293548745,15988 330th Ave,Frazee,56544,Becker
1302387519,22350 Sunrise Rd NE,Stacy,55079,Anoka
1100313745,27528 225th Ave,Long Prairie,56347,Todd
1013040666,24514 QUIET RD,Elysian,56028,Le Sueur
1307178520,750 Walnut Street,Marine On St. Croix,55047,Washington
1413785332,21666 E HEIGHT OF LAND DR,Detroit Lakes,56501,Becker
1013040946,51474 Lakeland drive,Elysian,56028,Le Sueur
1137417896,63058 Loon Ave,Jacobson,55752,Aitkin
1345955808,7099 Maple Grove Rd,Cloquet,55720,St. Louis
1013848803,12580 Hoese Lane,Watertown,55388,Carver
1013038876,24534 474th Ln,Elysian,56028,Le Sueur
1293551015,29896 mchugh rd,Frazee,56544,Becker
1100312287,32230 County 89,Browerville,56438,Todd
1013042506,580 W Prairie St,Le Center,56057,Le Sueur
1023857215,2220 30th St NW,Willmar,56201,Kandiyohi
1345903877,4842 NW Island Lake Rd,Duluth,55803,St. Louis
1528461407,84789 Jack Pine Lane,Sturgeon Lake,55783,Pine
1091702314,36767 Hwy 56 Blvd,Dennison,55018,Goodhue
1100314559,22637 GATEWAY DR,Osakis,56360,Todd
1135541361,34522 830th Ave,Olivia,56277,Renville
1307182038,11719 Myeron Road North,Stillwater,55082,Washington
939,112 Tepeeotah Road,Tracy,56175,Murray
1287544082,150 Tepeeotah Road,Tracy,56175,Murray
1293548188,38929 STATE HIGHWAY 34,Detroit Lakes,56501,Becker
1031571582,20611 245th Ave ,Pierz,56364,Morrison
1528303232,29165 COUNTY 18,Browerville,56438,Todd
1287446366,71530 325th St,Grand Meadow,55936,Mower
1138761551,388 340th Ave NW,Stephen,56757,Marshall
1023862880,3601 165th Ave SE,Lake Lillian,56253,Kandiyohi
1137440649,42224 380TH LN,Aitkin,56431,Aitkin
1079045430,9991 Dell rd,Eden Prairie,55347,Hennepin
1114847923,23595 Buttercup Lane,Aitkin,56431,Crow Wing
1114877273,11486 sorenson lake lane,Merrifield,56465,Crow Wing
1390940968,15222 COUNTY ROAD 41,Cologne,55322,Carver
1091715381,19276 315th Street,Red Wing,55066,Goodhue
1314233865,1230 Foley Ave. NW,Maple Lake,55358,Wright
6377,5860 10th St NW,Maple Lake,55358,Wright
1049749595,25896 Jenkins ave,Kenyon,55946,Rice
1013042504,24282 376th street,Le Center,56057,Le Sueur
1013051735,23817 512th st,Madison Lake,56063,Le Sueur
1100314918,22445 GATEWAY DR,Osakis,56360,Todd
1013833995,10175 County Rd 50,Cologne,55322,Le Sueur
1139681811,1775 210th Street E,Farmington,55024,Dakota
1114847696,17087 County Rd 11,Crosby,56441,Crow Wing
1013043577,41531 237th Ave,Le Center,56057,Le Sueur
1287571020,5555 hwy 67,Granite Falls,56241,Yellow Medicine
1293548413,21748 E HEIGHT OF LAND DR BLDG 2,Detroit Lakes,56501,Becker
1013833069,17025 County Road 53,Cologne,55322,Carver
1031570990,30584 203rd St,Pierz,56364,Morrison
1013851751,9075 County Road 135,Norwood Young America,55397,Carver
1527824411,2510 Granlund lane SW,Alexandria,56308,Douglas
1013055562,13878 Sakatah Lake Road,Waterville,56096,Le Sueur
1114828164,11579 Bonnie Rd,Brainerd,56401,Crow Wing
1086628431,18491 CSAH 15,Dassel,55325,Meeker
6461,18539 CSAH 15,Dassel,55325,Meeker
1114816051,17742 Browns LN,Brainerd,56401,Crow Wing
1042386220,39800 220th Street,Lamberton,56152,Cottonwood
1031562118,17708 153rd St.,Little Falls,56345,Morrison
1100317536,31213 Little Pine Lane,Cushing,56443,Todd
1390945250,11345 Urban Avenue,Norwood Young America,55368,Carver
1013040954,"51285 Lakeland Lane, Box 213",Elysian,56028,Le Sueur
1139686294,31560 Foliage Ave.,Northfield,55057,Dakota
1101176126,1349 222nd Ave,Balaton,56115,Lyon
1013839241,17125 County Rd. 31,Norwood Young America,55368,Carver
1025460472,24916 Saint Benedict Road,New Prague,56071,Scott
1062141131,40099 150th St,Waseca,56093,Waseca
1605372371,2274 Brook Hollow Drive,Carlton,55718,Carlton
1112846514,18168 Hwy 248,Altura,55910,Winona
1139673703,32115 Canada Avenue,Northfield,55057,Dakota
1100314859,22233 GATEWAY DR,Osakis,56360,Todd
1038067539,38841 413th Ave,St. Peter,56082,Nicollet
1100314912,22162 GATEWAY DR,Osakis,56360,Todd
1287446355,32969 710th Ave,Grand Meadow,55936,Mower
1527810200,36235 Hubble pond rd,Rochert,56578,Becker
1345898657,7348 hwy 97,Eveleth,55734,St. Louis
1112864264,23778 Homer Valley Rd,Winona,55987,Winona
1013043572,22773 410th St,Le Center,56057,Le Sueur
1101184116,1054 County road 63,Balaton,56115,Lyon
1013814744,17305 Koepp Dr,Carver,55315,Carver
1100318215,34288 255th Avenue,Browerville,56438,Todd
1315210950,9934 30th Street SE,Eyota,55934,Olmsted
1013040940,21968 Woodduck Lane,Evergreen,80439,Le Sueur
1100317595,33721 Lupine Dr,Cushing,55443,Todd
1548863519,3603 Constance Blvd NE,Ham Lake,55304,Anoka
1287568596,4721 170th Ave ,Cottonwood,56229,Yellow Medicine
1112869098,24142 Homer Valley Rd,Winona,55987,Winona
1100314863,22347 GATEWAY DR,Osakis,56360,Todd
1314224501,11420 25th Street SW,Cokato,55321,Wright
1013044131,43310 231st Ln,Le Center,56057,Le Sueur
1100318104,25655 County 62,Browerville,56438,Todd
1114815116,18535 sploezen,Brainerd,56401,Crow Wing
1031575059,7001 Imperial Rd. ,Royalton,56373,Morrison
1527823692,20188 Linberg Rd,Deerwood,56444,Crow Wing
1013042468,23831 376th St,Le Center,56057,Le Sueur
1013040978,29652 290th St,Henderson,56044,Le Sueur
1566641007,28074 County Highway 26,Detroit Lakes,56501,Becker
1018915775,15683 18th St N,Georgetown,56546,Clay
1302426685,430 209th Ave NW,Oak Grove,55011,Anoka
1139673307,23775 Essex Ave ,Farmington,55024,Dakota
1293618385,3146 River Meadows Drive,Mankato,56001,Blue Earth
1293548372,21513 E HEIGHT OF LAND DR,Detroit Lakes,56501,Becker
1114870432,15990 1st St,Ironton,56455,Crow Wing
1091730962,45503 135th Ave,Wanamingo,55983,Goodhue
1013040887,21924 Woodduck Ln,Elysian,56028,Le Sueur
1100318046,35611 235th Ave,Browerville,56438,Todd
1031575053,6617 Imperial Rd,Royalton,56373,Morrison
1293563437,38898 HEIGHT OF LAND RD,Detroit Lakes,56501,Becker
1605532435,5096 Otter River Road,Duluth,55803,St. Louis
1116072277,59372 300th ave,Millville,55957,Wabasha
1114859134,25402 Black Bear Drive,Deerwood,56444,Crow Wing
1091721738,29190 Sunset Trail,Cannon Falls,55009,Goodhue
1527810148,21748 E HEIGHT OF LAND DR,Detroit Lakes,56501,Becker
1013055917,17023 Dickenson Lane,Waterville,56096,Le Sueur
1013057124,48144 151 Ave,Waterville,56096,Le Sueur
1091721826,13270 Welch Trail,Welch,55089,Goodhue
1063357357,19392 585th St,Dodge Center,55927,Dodge
1112856731,38623 Woodland Hills Dr ,Winona,55987,Winona
1013814741,17190 Koepp Dr,Carver,55315,Carver
1023853390,2724 105 Ave SE,Willmar,56201,Kandiyohi
1023855199,516 45th Street NW,Willmar,56201,Kandiyohi
1287568580,4630 175th Ave,Cottonwood,56229,Yellow Medicine
1031556454,20364 335th Ave,Hillman,56338,Morrison
1315222994,3680 60th Ave NW,Rochester,55901,Olmsted
1137425394,16275 State Hwy 27 ,Mcgregor,55760,Aitkin
1307162550,12149 Quail Avenue Lane N,Stillwater,55082,Washington
1548845879,3266 County Road 10,Cottonwood,56229,Lyon
1287438800,13405 535th Ave,Austin,55912,Mower
1031575267,8325 Imperial Road,Royalton,56373,Morrison
1013055317,17376 500th lane,Waterville,56096,Le Sueur
1062143352,33803 145th Street,Waseca,56093,Waseca
1043685419,35749 County Road 19,Belgrade,56312,Stearns
1293548180,39376 STATE HIGHWAY 34,Detroit Lakes,56501,Becker
1013039387,26241 Lake Jefferson Rd,Cleveland,56017,Le Sueur
1013040900,51300 Obernolte Lane,Elysian,56028,Le Sueur
1101190914,"PO Box 55, 1994 140th St",Balaton,56115,Lyon
1100314861,22299 GATEWAY DR,Osakis,56360,Todd
1137418427,63537 Loon Ave,Jacobson,55752,Aitkin
1314215336,9099 30th st sw,Howard Lake,55349,Wright
1100317508,31113 Cty 16,Cushing,56443,Todd
1091706602,6758 319th Street Way,Cannon Falls,55009,Goodhue
1457609710,41356 silver lake Lane,Le Center,56057,Le Sueur
1116064525,12856 622 STREET,Kellogg,55945,Wabasha
1114842944,33834 County Rd 105,Atkin,56431,Crow Wing
1139681316,25185 Hogan Ave,Hampton,55031,Dakota
1139686298,31432 Foliage Avenue,Northfield,55057,Dakota
1062139610,7110 403 Ave,Janesville,56048,Waseca
1031568204,20862 165 Ave,Little Falls,56345,Morrison
1062148119,35221 30th St,Janesville,56048,Waseca
1138757649,46546 300th St. NW ,Argyle,56713,Marshall
1345888725,4792 Breezy Poinr Rd,Duluth,55803,St. Louis
1031562103,17480 153rd st,Little Falls,56345,Morrison
1013043066,40649 231st Ave ,Le Center,56057,Le Sueur
1042386035,23651 420 ave,Lamberton,56152,Cottonwood
1100317540,33360 Lone Pine Drive ,Browerville,56438,Todd
1013836944,6350 Hilda Ave N,New Germany,55367,Carver
1100318052,35129 county rd 21,Browerville,56438,Todd
1139672549,9260 310 st W,Northfield,55057,Dakota
1025477211,8210 west 125th st,Savage,55378,Scott
1042386217,37720 210TH ST,Lamberton,56152,Cottonwood
1307164582,22950 Lofton Ave N,Scandia,55073,Washington
1013055098,18682 Shelby Ct,Waterville,56096,Le Sueur
1013848818,12920 50th Street,Watertown,55388,Carver
1605232654,11304 Twin Lakes Rd,Merrifield,56465,Crow Wing
1293548190,39254 STATE HIGHWAY 34,Detroit Lakes,56501,Becker
1100317408,36291 Nighthawk Trail,Cushing,56443,Todd
1031562418,"13386 Hillton Rd, Little Falls mn 56345",Little Falls,56345,Morrison
1114832651,6860 80th st.,Brainerd,56401,Crow Wing
1013839216,18790 122nd Street,Norwood Young America,55368,Carver
1091704103,9360 Forest Rd,Cannon Falls,55009,Goodhue
1293563434,38872 HEIGHT OF LAND RD,Detroit Lakes,56501,Becker
1307162027,15066 Hudson Blvd North,Stillwater,55082,Washington
1109664546,43902 830th St,Lakefield,56150,Jackson
1031570481,22972 Highway 25,Pierz,56364,Morrison
1112860051,25993 Steinbauer Dr,Minnesota City,55959,Winona
1293625413,19239 Kodiak Lane,Mankato,56001,Blue Earth
1031569419,29836 Highway 27,Pierz,56364,Morrison
1293563424,38714 HEIGHT OF LAND RD,Detroit Lakes,56501,Becker
1293618398,3251 Meadowview Lane,Mankato,56001,Blue Earth
1013833130,"9340 Johnson Drive, ",Cologne,55322,Carver
1086624725,17366 CSAH 35,Litchfield,55355,Meeker
1100317475,34113 Leisure Drive ,Cushing,56443,Todd
1345959807,1334 Sassas Road,Cook,55723,St. Louis
1135539032,68839 320th St,Morton,56270,Renville
1135747752,761 Powers Lake Road,Hovland,55606,Cook
1100314551,22697 GATEWAY DR,Osakis,56360,Todd
1114815284,18759 Tracside Road,Brainerd,56401,Crow Wing
1136786378,11191 wildflower drive,Caledonia,55921,Houston
1307182027,11045 Myeron Road North,Stillwater,55082,Washington
1413833848,25006 Little Trout Valley Road,Winona,55987,Winona
1013045262,42413 STATE HIGHWAY 13,Montgomery,56069,Le Sueur
1287386835,23494 York Road,Hutchinson,55350,McLeod
1413790896,1405 Komoko Rd,Carlton,55718,Carlton
1293618406,174 Limestone Ln,Mankato,56001,Blue Earth
1025475281,2626 213th St East,Prior Lake,55372,Scott
1031561236,6742 highway 27,Little Falls,56545,Morrison
1029539850,3219 Camp 26 Rd,Silver Bay,55614,Lake
1345859524,3343 wilderness way,Orr,55771,St. Louis
1413829566,65554 310th Ave,Lake City,55041,Wabasha
1013044204,37699 Hunting Preserve Lane,Le Center,57957,Le Sueur
1031575260,18446 83rd Street,Royalton,56373,Morrison
1315211914,6455 COUNTY ROAD 105 NW,Byron,55920,Olmsted
1413798906,12200 Pheasant Hill Road Northeast,Osakis,56360,Douglas
1031570983,30008 Hwy 27,Pierz,56364,Morrison
1116064636,16981 658th Street,Wabasha,55981,Wabasha
1013839929,14825 Ingram Trail,Norwood,55368,Carver
1086624612,23623 730th Avenue,Dassel,55325,Meeker
1100314558,22585 GATEWAY DR,Osakis,56360,Todd
1101183204,3378 130th Ave Jeremiason Photo,Minneota,56264,Lyon
1013043393,41703 Silver Lake Lane ,Le Center,56057,Le Sueur
1013814910,8965 150th St,Cologne,55322,Carver
1315215404,12613 Old Number 7 SE,Chatfield,55923,Olmsted
1013852198,18325 110th St,Young America,55397,Carver
1287446658,31852 720 Ave,Grand Meadow,55936,Mower
1112864226,23499 Homer Valley Rd,Winona,55987,Winona
1287384216,17585 Vale Avenue,Hutchinson,55350,McLeod
1315220384,7291 County 6 Road SW,Stewartville,55976,Olmsted
1139685086,29676 Foliage Ave,Northfield,55057,Dakota
1025460470,24680 St Benedict Rd,Jordan,55352,Scott
1114816087,7011 Browns Lane ,Brainerd,56401,Crow Wing
1031560533,18713 105th ave,Little Falls,56345,Morrison
1063358913,55288 State Hwy 57,West Concord,55985,Dodge
1013813598,15220 COUNTY ROAD 41,Cologne,55322,Carver
1091711367,22387 285 st way,Red Wing,55066,Goodhue
1528303333,23468 Ellis Ct,Long Prairie,56347,Todd
1091709904,22900 Polk Avenue,Hastings,55033,Goodhue
1024538219,10623 Town Rd 76,Gheen,55771,Koochiching
1031572863,14043 350th Ave,Pierz,56364,Morrison
1287451395,69185 160TH St,Adams,55909,Mower
1293616914,57475 164 St,Good Thunder,56037,Blue Earth
1293548403,21983 E HEIGHT OF LAND DR,Detroit Lakes,56501,Becker
1114861330,23792 Beaver Creek Road,Deerwood,56444,Crow Wing
1023848864,5640 45th Ave SW,Willmar,56201,Kandiyohi
1413812347,48460 221st Ave ,Elysian,56028,Le Sueur
1013843954,11175 66TH ST,Waconia,55387,Carver
1287572293,4876 210th ave,Hanley Falls,56245,Yellow Medicine
1116069265,31148 640th st ,Lake City,55041,Wabasha
1013848813,4355 Quaas Ave,Watertown,55388,Carver
1112852353,18606 Highway 248,Rollingstone,55969,Winona
1116063700,30747 670th st ,Lake City,55041,Wabasha
1100317627,33263 Loon Drive,Cushing,56443,Todd
1042386126,38698 240th Street,Lamberton,56152,Cottonwood
1013837244,14925 50th Street,Mayer,55360,Carver
1121872026,10595 350th Ave,Comfrey,56019,Brown
1013047495,35124 Fox Hollow Road ,Le Sueur,56058,Le Sueur
1100318076,35014 Mayfly Rd,Bowerville,56438,Todd
1307164234,12159 Quail Avenue Lane N,Stillwater,55082,Washington
1100317472,34235 Leisure Drive,Cushing,56443,Todd
1100317513,33589 Loon Trail,Cushing,56443,Todd
1100316349,21735 co 38,Long Prairie,56347,Todd
1527791893,10440 County Rd 7 Nw,Maple Lake,55358,Wright
1013047197,30518 Pumpkin hill rd ,Le Sueur,56058,Le Sueur
1114817900,8968 Wise Road,Brainerd,56401,Crow Wing
1605194544,20021 120th Ave,Little Falls,56345,Morrison
1391338085,16764 County Road 114,Altura,55910,Winona
1091709668,11995 350th Street Way,Cannon Falls,55009,Goodhue
1023864087,6640 105th street southwest ,Raymond,56282,Kandiyohi
1527595407,20457 Quinnell Avenue North,Scandia,55073,Washington
1307165465,8935 Scandia Trail North,Forest Lake,55025,Washington
1013037887,24970 Swedes Bay Ln,Elysian,56028,Le Sueur
1042386293,20077 - 440th Avenue,Sanborn,56083,Cottonwood
1100313740,28558 225th ave,Browerville,56438,Todd
1019730383,876 235th Ave,Fairmont,56031,Martin
1086623907,23862 CSAH 1,Litchfield,55355,Meeker
1013047180,30634 Pumpkin Hill Rd,Le Sueur,56058,Le Sueur
1013042397,21679 400th st,Le Center,56057,Le Sueur
1043701702,25715 325th ave,Paynesville,56362,Stearns
1030151364,23507 176th St NW,Big Lake,55309,Sibley
1013043385,41604 Silver Lake Lane,Le Center,56057,Le Sueur
1013844026,11325 66th Street,Waconia,55387,Carver
1307182020,11313 neal ave n,Stillwater,55082,Washington
1114880876,7333 Blue Heron Lane,Nisswa,56468,Crow Wing
1062137207,35205 73rd St.,Waseca,56093,Waseca
1013055900,17001 Dickenson Lane,Waterville,56096,Le Sueur
1390943673,14265 County Road 41,Cologne,55322,Carver
1013040918,21984 516th Street,Elysian,56028,Le Sueur
1527720173,7567 Murphy Lake Road,Eveleth,55734,St. Louis
1013046421,775 Ottawa Road,Le Sueur,56058,Le Sueur
1293548167,39545 STATE HIGHWAY 34,Detroit Lakes,56501,Becker
1060460481,39489 230th St,Brewster,56119,Nobles
1101182978,2465 250th Street,Marshall,56258,Lyon
1013839220,16980 County Road 31,Norwood-Young America,55368,Carver
1031556885,19306 330th Avenue,Hillman,56338,Morrison
1013047766,36302 321st Ave,Le Sueur,56058,Le Sueur
1100333978,22251 GATEWAY DR,Osakis,56360,Todd
1112847237,12443 County Road 41,Altura,55910,Winona
1013836443,13625 Yale Avenue,Hamburg,55339,Carver
1100317537,35795 Moraine Drive,Cushing,56443,Todd
1135530139,89490 405th St,Bird Island,55310,Renville
1086628308,51643 195th Street,Atwater,56209,Meeker
1112852904,10100 Co Rd 30,Plainview,55964,Winona
1287569409,2370 490th St,Hazel Run,56241,Yellow Medicine
1013039196,25267 456th Street,Cleveland,56017,Le Sueur
1136788124,6370 County 14,Caledonia,55921,Houston
1031562304,19254 125th ave,Little Falls,56345,Morrison
1345970148,3584 Prindle Rd,Duluth,55803,St. Louis
1112847201,15355 FAIRWATER RD,Altura,55910,Winona
1063356314,61589 210th Ave,Dodge Center,55927,Dodge
1314216742,8351 15TH ST SW,Howard Lake,55349,Wright
1013055325,50052 175th Ave,Waterville,56096,Le Sueur
1038073039,42642 380th Street,Saint Peter,56082,Nicollet
1345890817,2329 Stuart Road,Hibbing,55746,St. Louis
1062135974,35961 150TH ST ,Waseca,56093,Waseca
1049742401,7606 115th Street East,Northfield,55057,Rice
1293563426,38788 HEIGHT OF LAND RD,Detroit Lakes,56501,Becker
1345913722,3614 Prindle Road,Duluth,55803,St. Louis
1013837473,16315 COUNTY ROAD 122,Mayer,55360,Carver
1293563422,38780 HEIGHT OF LAND RD,Detroit Lakes,56501,Becker
1528303231,35211 Leisure Drive,Cushing,56443,Todd
1293548127,39477 STATE HIGHWAY 34,Detroit Lakes,56501,Becker
1293548420,21704 E HEIGHT OF LAND DR,Detroit Lakes,56501,Becker
1100314860,22287 GATEWAY DR,Osakis,56360,Todd
1293563427,38828 HEIGHT OF LAND RD,Detroit Lakes,56501,Becker
1100316261,21482 260th St,Long Prairie,56347,Todd
1091704102,9350 Forest Road,Cannon Falls,55009,Goodhue
1031566436,13286 140th Ave,Little Falls,56345,Morrison
1013832415,13400 Juliet Road,Cologne,55322,Carver
1293548399,21716 E HEIGHT OF LAND DR,Detroit Lakes,56501,Becker
1287430686,53238 262nd St,Austin,55912,Mower
1293548369,21767 E HEIGHT OF LAND DR,Detroit Lakes,56501,Becker
1100318022,27872 Lair Rd,Browerville,56438,Todd
1390943675,8365 Inwood Rd,Cologne,55322,Carver
1024585576,"3584 County Road 24    (Mailing address: 1801 2nd Ave, Unit 776)",International Falls,56649,Koochiching
1018915887,620 160th Avenue N,Georgetown,56546,Clay
1293548383,21644 E HEIGHT OF LAND DR,Detroit Lakes,56501,Becker
1136786098,13601 South Prairie Drive,Caledonia,55921,Houston
1013055489,48233 201st Ave,Waterville,56096,Le Sueur
1013042470,38235 251st Ave,Le Center,56057,Le Sueur
1293548370,21692 E HEIGHT OF LAND DR,Detroit Lakes,56501,Becker
1100314126,12405 County 11,Sauk Centre,56378,Todd
1287449280,78330 170th St,Ostrander,55961,Mower
1548899924,6650 265th Street W,Farmington,55024,Dakota
1013055491,48235 189th ave ,Waterville,56096,Le Sueur
1293549518,27950 County Highway 34,Callaway,56521,Becker
1063363506,16536 County Highway 34,Dodge Center,55927,Dodge
1114850149,23669 butter cup ln,Aitkin,56431,Crow Wing
1293548192,39410 STATE HIGHWAY 34,Detroit Lakes,56501,Becker
1307151261,8249 Mount Carmel Road,Lake Elmo,55042,Washington
1031570512,22621 275th Ave,Pierz,56364,Morrison
4229,22643 275th Ave,Pierz,56364,Morrison
1293710250,1411 Komoko Road,Carlton,55718,Carlton
1112864198,23773 County Road 122,Winona,55987,Winona
1315216191,6348 Stagecoach Rd SE,Stewartville,55976,Olmsted
1293548193,38715 STATE HIGHWAY 34,Detroit Lakes,56501,Becker
1018919869,8102 90th St N,Glyndon,56547,Clay
1023855179,790 45th Street Northwest,Willmar,56201,Kandiyohi
1315222751,13175 52nd Street NE,Eyota,55934,Olmsted
1013040877,22296 Warner Lane,Elysian,56028,Le Sueur
1025443961,19953 281 AVE,Belle Plaine,56011,Sibley
1100317496,33348 Lone Pine Dr,Browerville,56438,Todd
1293548125,39455 STATE HIGHWAY 34,Detroit Lakes,56501,Becker
1013852219,17850 110th St,Norwood Young America,55397,Carver
6366,5053 560th Ave,Beardsley,56211,Traverse
1605446812,5047 560th Ave,Beardsley,56211,Traverse
1287439131,52629 140th St,Austin,55912,Mower
1091715376,19090 315th Street,Red Wing,55066,Goodhue
1287451359,15189 730th Ave,Le Roy,55951,Mower
1112847262,13377 Jacob Lane,Altura,55910,Winona
1042386205,39799 220th Street,Lamberton,56152,Cottonwood
1112852902,10775  Beaver Ridge Dr,Plainview,55964,Winona
1013851890,17450 90th St,Young America,55397,Carver
1042386120,38566 County Road 10,Lamberton,56152,Cottonwood
1139683052,28218 Foliage Avenue,Northfield,55057,Dakota
1100313960,28004 165 Ave,Long Prairie,56347,Todd
1345890816,12964 County Road 16,Hibbing,55746,St. Louis
1013837541,2660 Vega Ave,Mayer,55360,Carver
1307162026,15062 Hudson Blvd North,Stillwater,55082,Washington
1293618368,3113 River Meadows Dr,Mankato,56001,Blue Earth
1527823397,4285 Wheeler Rd,Brainerd,56401,Crow Wing
1287572395,1980 Highway 59,Clarkfield,56223,Yellow Medicine
1287380374,12518 165th St,Glencoe,55336,McLeod
1293548182,38821 STATE HIGHWAY 34,Detroit Lakes,56501,Becker
1018916025,17027 20th St North,Georgetown,56546,Clay
1023849390,3140 30th Street NW,Willmar,56201,Kandiyohi
1078724955,9980 Dell Rd,Eden Prairie,55347,Hennepin
1293548183,38789 STATE HIGHWAY 34,Detroit Lakes,56501,Becker
1100314562,22308 GATEWAY DR,Osakis,56360,Todd
1013039577,41291 271st Ave,Cleveland,56017,Le Sueur
1013040885,22146 Warner Lane,Elysian,56028,Le Sueur
1013039198,25395 456TH ST,Cleveland,56017,Le Sueur
1307181765,4840 Pheasant Ct S,Afton,55001,Washington
1307162551,12125 Quail Avenue Lane North,Stillwater,55082,Washington
1307164594,11180 228th St N,Scandia,55073,Washington
1139686300,6615  320th street west,Northfield,55057,Dakota
1063355085,17557 625TH ST,Dodge Center,55927,Dodge
1013837208,15830 County Road 32,Norwood Young America,55397,Carver
1023869875,3000 60th St NW,Willmar,56201,Kandiyohi
1112852346,19100 County Road 114,Rollingstone,55969,Winona
1287415441,32395 CR-2,Morton,56270,Redwood
1307162552,12137 Quail Ave Ln N,Stillwater,55082,Washington
1013040880,1164 Lake Francis Lane,Elysian,56028,Le Sueur
1307162556,12082 Quail Avenue N,Stillwater,55082,Washington
1287544216,14 Keeley Island Dr.,Slayton,56172,Murray
1100317418,35456 Leisure Dr,Cushing,56443,Todd
1527792039,1883 94th St SW,Montrose,55363,Wright
1315212732,7260 140th ave ne,Plainview,55964,Olmsted
1293548138,39461 STATE HIGHWAY 34,Detroit Lakes,56501,Becker
1091706513,31051 MN 19,Cannon Falls,55009,Goodhue
1100317588,33897 Lupine Dr.,Cushing,56443,Todd
1315211946,6351 247 HWY NE,Elgin,55932,Olmsted
1013852009,16035 County Road 135,Young America,56001,Carver
1049742466,7752 Goodrich Trail,Northfield,55057,Rice
1013040413,2127 440th Ave,Elysian,56028,Le Sueur
1029538226,6568 Stoneridge Road,Silver Bay,55126,Lake
1023863889,10370 195th Ave SE,Lake Lillian,56253,Kandiyohi
1293548174,39318 STATE HIGHWAY 34,Detroit Lakes,56501,Becker
1293619441,57983 185th street,Mankato,56001,Blue Earth
1091704295,7999 Cty 17 Blvd,Cannon Falls,55009,Goodhue
1293548139,39630 STATE HIGHWAY 34,Detroit Lakes,56501,Becker
1293563428,38724 HEIGHT OF LAND RD,Detroit Lakes,56501,Becker
1031575134,6307 180th Ave ,Royalton,56373,Morrison
1062142446,5247 390th Avenue,Janesville,56048,Waseca
1413831275,4708 Highway 73,Floodwood,55736,St. Louis
1114880863,7321 Blue Heron Lane,Nisswa,56468,Crow Wing
1038069577,49880 US Highway 14,Courtland,56021,Nicollet
1031570484,24182 Highway 25,Pierz,56364,Morrison
1101190992,2919 375th Street,Cottonwood,56229,Lyon
1314231772,8944 750th Ave SW,Cokato,55321,Wright
1013852584,19185 market ave,Belle Plaine,56011,Carver
1013839400,17275 110th Street,Young America,55397,Carver
1345917520,5054 Otter River Rd,Duluth,55803,St. Louis
1013040893,22152 warner mane,Elysian,56028,Le Sueur
1293548135,39535 STATE HIGHWAY 34,Detroit Lakes,56501,Becker
1013037894,24406 480th St,Elysian,56028,Le Sueur
1091702219,39274 County 14 Blvd,Kenyon,55946,Goodhue
1287544934,2174 110th Ave,Balaton,56115,Murray
1139679393,28639 Garrett Ave,Northfield,55057,Dakota
1013812276,2925 Vega Ave,Mayer,55360,Carver
1091720973,2157 Frazier St,Welch,55089,Goodhue
1287549773,210 Trenholm Ave,Dovray,56125,Murray
1091705844,9680 Prairie Rd,Cannon Falls,55009,Goodhue
1287386156,21231 County Road 7,Hutchinson,55350,McLeod
1605383613,21516 Great Deer Drive,Nevis,56467,Hubbard
1139685407,6335 265th St W,Farmington,55024,Dakota
1025441228,31199 180th st,Green Isle,55338,Sibley
1091705843,9610 Prairie Rd,Cannon Falls,55009,Goodhue
1287444367,66765 140th Street,Adams,55909,Mower
1100316601,22994 190th Street,Long Prairie,56347,Todd
1293548373,21623 E HEIGHT OF LAND DR,Detroit Lakes,56501,Becker
1314224499,11756 25th ST SW,Cokato,55321,Wright
1315211919,6505 County Road 105 NW,Byron,55920,Olmsted
1100313928,28508 Cty Rd 89,Browerville,56438,Todd
1013833325,15005 Co Rd. 41,Cologne,55322,Carver
1019738438,471 80th ave ,Dunnell,56127,Martin
1136786361,18418 Simmental Rd,Caledonia,55921,Houston
1287445664,27811 665th Ave,Dexter,55926,Mower
1031571801,28065 213TH ST,Pierz,56364,Morrison
1314222199,9520 10th St. SW,Howard Lake,55349,Wright
1605383592,20280 269th Avenue,Nevis,56467,Hubbard
1091704798,7815 Highview Road,Cannon Falls,55009,Goodhue
1114816076,17671 N Browns Lane,Brained,56401,Crow Wing
1013839398,17125 110th St.,Young America,55397,Carver
1345911145,11668 Old Ash Lake Road ,Orr,55771,St. Louis
1605201710,49200 MN-48 ,Hinckley,55037,Pine
1293548200,20986 E HEIGHT OF LAND DR,Detroit Lakes,56501,Becker
1100311153,28457 Cty 3,Eagle Bend,56446,Todd
1079040853,14601 thicket lane,Dayton,55327,Hennepin
1013040910,21880 Woodduck Ln,Elysian,56028,Le Sueur
1101181322,2951 375th St,Cottonwood,56229,Lyon
1345841697,4818 Swan Lake Rd,Hermantown,55811,St. Louis
1031560436,17851 Hwy 10,Little Falls,56345,Morrison
1287549175,1185 240th Ave,Avoca,56114,Murray
1100315751,22535 Ginseng Road,Long Prairie,56347,Todd
1013850536,11625 46TH ST,Watertown,55388,Carver
1101176867,2773 190th St,Tracy,56175,Lyon
1029537010,5243 Rieder Memorial Dr,Silver Bay,55614,Lake
1091716894,29228 County 53 Blvd,Red Wing,55066,Goodhue
1062140774,10432 400th Ave.,Waseca,56093,Waseca
1042386227,39808 210th Street,Lamberton,56152,Cottonwood
1024580760,2306 Town Rd 342,International Falls,56649,Koochiching
1013047189,30578 PUMPKIN HILL RD,Le Sueur,56058,Le Sueur
1112864199,23995 County road 122,Winona,55987,Winona
1013837544,2920 Vega Ave,Mayer,55360,Carver
1100315731,22915 county 38,Long Prairie,56347,Todd
1043664084,10251 County Road 47,Rockville,56301,Stearns
1139674735,7740 280th St W,Farmington,55024,Dakota
1139686101,9009 330Th St W,Northfield,55057,Dakota
1314241956,1471 Hoyt Ave NW,Annandale,55302,Wright
1315221670,8626 85th St NW,Pine Island,55963,Olmsted
1345901514,10597 Johnson Rd,Orr,55771,St. Louis
1101180177,3909 200th Ave,Minneota,56264,Lyon
1287432538,51714 270th St,Austin,55912,Mower
1315218864,6301 cr 103 nw ,Byron,55920,Olmsted
1100317512,33555 Loon Trl,Cushing,56443,Todd
1345973892,1146 Old Airport Road,Ely,55731,St. Louis
1287568576,1758 460th St,Cottonwood,56229,Yellow Medicine
1100317644,29868 timberlane rd,Staples,56479,Todd
1137444561,27453  362 LN,Aitkin,56431,Aitkin
1013843948,11210 66th street,Waconia,55387,Carver
1100316527,21554 County 38,Long Prairie,56347,Todd
1100318103,34883 County 79,Browerville,56438,Todd
1100316428,22094 county rd 10,Long Prairie,56347,Todd
1013848804,12530 Hoese Lane,Watertown,55388,Carver
1100317630,33201 Loon Drive,Cushing,56443,Todd
1031560689,19983 105TH AVENUE,Little Falls,56345,Morrison
1013814479,2935 Vega Avenue,Mayer,55360,Carver
1314237678,11509 US Highway 12,Howard Lake,55349,Wright
1100317629,33207 Loon Drive,Browerville,56443,Todd
1314216743,1758 Ireland ave sw,Howard Lake,55349,Wright
1135537658,79023 COUNTY ROAD 20,Stewart,55385,Renville
1063363603,17701 625th Street,Dodge Center,55927,Dodge
1013839932,14815 Ingram Trail ,Norwood Young America,55368,Carver
1031559379,12156 200th street,Little Falls,56345,Morrison
1100314561,22565 GATEWAY DR,Osakis,56360,Todd
1293548385,21626 E HEIGHT OF LAND DR,Detroit Lakes,56501,Becker
1100309573,17616 256th Street,Long Prairie,56347,Todd
1413821097,57664 850th Ave,Stewart,55385,Renville
1116066460,66569 County Road 9,Lake City,55041,Wabasha
1345909562,3276 Randa Rd,Orr,55771,St. Louis
1307162553,12072 Quail Ave Ln N,Stillwater,55082,Washington
1293642466,21197 AUTUMN ROAD,Lake Crystal,56055,Blue Earth
1013839433,11075 Weller Ave,Young America,55397,Carver
1013043563,40963 237th Ave,Le Center,56057,Le Sueur
1345969070,7420 RICE LAKE RD,Duluth,55803,St. Louis
1100314557,22525 GATEWAY DR,Osakis,56360,Todd
1013055906,17181 Dickenson Lane,Waterville,56096,Le Sueur
1013040883,22232 Warner Lane,Elysian,56028,Le Sueur
1018922497,22670 28th Ave N,Hawley,56549,Clay
1293563435,38858 HEIGHT OF LAND RD,Detroit Lakes,56501,Becker
1013837992,3585 STONE AVE,Watertown,55388,Carver
1018919941,9902 43RD AVE N,Glyndon,56547,Clay
1287569905,5515 Hwy 167,Granite Falls,56241,Yellow Medicine
1293618833,56999 178th Lane,Good Thunder,56037,Blue Earth
1100317379,37223 county 17,Cushing,56443,Todd
1112851494,11297 Channel View Road,Minnesota City,55959,Winona
1287390850,1252 165th St,Norwood Young America,55397,McLeod
1100311635,20005 280th St,Browerville,56438,Todd
1315219059,5805 Prince Drive NW,Byron,55920,Olmsted
1100318073,35934 Mayfly Rd ,Browerville,56438,Todd
1031569423,29913 203rd St,Pierz,56364,Morrison
1100326147,35767 leisure drive ,Cushing,56443,Todd
1126478337,6475 760th Street,Wheaton,56296,Traverse
1315217948,7220 Dresser Dr NE,Rochester,55906,Olmsted
1013045304,45872 141st  Avenue,Kilkenny,56052,Le Sueur
1031575022,6339 192nd Ave,Royalton,56373,Morrison
1413812206,51306 Obernolte Ln,Elysian,56028,Le Sueur
1013055328,17132 500 Lane,Waterville,56096,Le Sueur
1031559355,12145 200th ST ,Little Falls,56345,Morrison
1345913343,4231 Stockholm Road,Duluth,55803,St. Louis
1293548387,22154 E HIEGHT OF LAND DR,Detroit Lakes,56501,Becker
1091714988,29460 Orchard Road,Red Wing,55066,Goodhue
1345893317,7241 Hwy 5,Side Lake,55781,St. Louis
1031565180,16515 203rd St,Little Falls,56345,Morrison
1139672553,"30551 Isle Ave., isle ave",Greenvale Township,55057,Dakota
1100314563,22365 GATEWAY DR,Osakis,56360,Todd
1100314545,15706 Galaxy road ,Osakis,66360,Todd
1031562305,19465 125th Ave,Little Falls,56345,Morrison
1114880875,7305 Blue Heron Ln,Lake Hubert,56468,Crow Wing
1138761082,21808 490th Ave NW,Oslo,56744,Marshall
1100315263,22688 190th St,Long Prairie,56347,Todd
1527595658,20699 Quint Avenue North,Scandia,55073,Washington
1013044728,22404 wild creek rd,Le Center,56057,Le Sueur
1307164235,12095 Quail Ave Lane North,Stillwater,55082,Washington
1013832427,12720 Kelly Ave,Chaska,55318,Carver
1135537382,60056 County road 16,Fairfax,55332,Renville
1293618380,3110 River Meadows Dr,Mankato,56001,Blue Earth
1293548196,39345 STATE HIGHWAY 34,Detroit Lakes,56501,Becker
1091706591,6885 319th Street Way,Cannon Falls,55009,Goodhue
1013055318,50368 175th Ave,Waterville,56096,Le Sueur
1031562085,17257 153rd st,Little Falls,56345,Morrison
1013055100,49626 Hilltop Lane ,Waterville,56096,Le Sueur
1013839415,17056 County Road 34,Norwood Young America,55368,Carver
1315215418,2712 1st St E,Stewartville,55976,Olmsted
1345943335,4610 West Pioneer Rd,Duluth,55803,St. Louis
1293548376,21672 E HEIGHT OF LAND DR,Detroit Lakes,56501,Becker
1100317419,35349 Leisure Dr,Cushing,56443,Todd
1100313980,27527 221st ave ,Long Prairie,56346,Todd
1100318067,26997 County 18,Browerville,56438,Todd
1031559900,9765 110th Street,Little Falls,56345,Morrison
1013834249,8095 Inwood Rd,Cologne,55322,Carver
1293618395,195 limestone ln,Mankato,56001,Blue Earth
1013843960,11165 66th st,Waconia,55387,Carver
1031571584,21082 245th ave,Pierz,56364,Morrison
1013042786,1024 le center,Le Center,56057,Le Sueur
1086624771,58902 190th Street,Litchfield,55355,Meeker
1031560609,10054 180th st,Little Falls,56345,Morrison
1307182029,11455 Neal Ave N,Stillwater,55082,Washington
1013852216,17840 110th St,Young America,55397,Carver
1566641009,27335 Sandra K Rd,Detroit Lakes,56501,Becker
1293618375,3250 MEADOWVIEW LANE,Mankato,56001,Blue Earth
1136788117,19167 Skyview Road ,Caledonia,55921,Houston
1031570502,23658 Highway 25,Pierz,56354,Morrison
1013040285,49409 Elysian Road,Elysian,56028,Le Sueur
1287544630,10 Edgewater Rd,Slayton,56172,Murray
1023847727,23350 105th Street Southeast,Lake Lillian,56253,Kandiyohi
1013843949,11280 66th street,Waconia,55387,Carver
569,11282 66TH ST,Waconia,55387,Carver
1345970147,3554 Prindle Rd,Rice Lake,55803,St. Louis
1013046241,29564 Pumpkn hill road,Le Sueur,56058,Le Sueur
1013042461,24637 376th St,Le Center,56057,Le Sueur
1293563436,38866 HEIGHT OF LAND RD,Detroit Lakes,56501,Becker
1091715384,31820 County 1 Blvd,Red Wing,55066,Goodhue
1114820927,16440 Rice View,Brainerd,56401,Crow Wing
1287567960,2331 Hwy 59,Clarkfield,56223,Yellow Medicine
1100317590,33833 Lupine Dr,Cushing,56443,Todd
1566641212,11639 Sorenson Lake Road,Merrifield,66227,Crow Wing
1604670250,1125 Co Rd 27 NE,Spicer,56288,Kandiyohi
1139675212,7417 280th St W,Farmington,55024,Dakota
1013040947,51314 Lakeland drive,Elysian,56028,Le Sueur
1031570124,26043 213th St.,Pierz,56364,Morrison
1100314857,22201 GATEWAY DR,Osakis,56360,Todd
1293616916,57490 153rd St,Good Thunder,56037,Blue Earth
1114877275,"11342, Sorenson Lake Lane",Merrifield,56465,Crow Wing
1029511563,7344 Hwy 1,Finland,55603,Lake
1018922496,22691 28th Ave N,Hawley,56549,Clay
1345946603,7282 WOLF BAY SHORES,Tower,55790,St. Louis
1112846180,14536 County Rd 25,Rollingstone,55969,Winona
1413785558,38806 HEIGHT OF LAND FRONTAGE RD,Rochert,56578,Becker
1013851881,9201 YALE AVE,Norwood Young America,55397,Carver
1604165481,30849 County 60,Browerville,56438,Todd
1287392858,18454 COUNTY ROAD 2,Silver Lake,55381,McLeod
1013041081,29421 290th Street,Henderson,56044,Le Sueur
1013833129,9310 150th Street,Cologne,55322,Carver
1031571601,24176 193rd St,Pierz,56364,Morrison
1013047186,30627 Pumpkin Hill Road,Le Sueur,56058,Le Sueur
1013852206,18090 102nd st,Norwood Young America,55397,Carver
1042386226,37574 County Road 11,Lamberton,56152,Cottonwood
1031570702,18235 320th Avenue,Pierz,56364,Morrison
1287394709,11644 Diamond Avenue,Glencoe,55336,McLeod
1287574085,5217 180th Ave,Wood Lake,56297,Yellow Medicine
1293548381,21658 E HEIGHT OF LAND DR,Detroit Lakes,56501,Becker
1013813587,15445 County Road 41,Cologne,55322,Carver
1091720624,26170 160TH AVENUE WAY,Welch,55089,Goodhue
1114859135,25419 Black Bear Dr,Deerwood,56444,Crow Wing
1031559404,12676 200th street,Little Falls,56345,Morrison
1024582542,1797 Town Rd,International Falls,56649,Koochiching
1314226504,2804 County Road 7 SW,Howard Lake,55349,Wright
1293563430,38800 HEIGHT OF LAND RD,Detroit Lakes,56501,Becker
1031556307,20906 305th Ave,Pierz,56364,Morrison
1063352545,60687 205 Ave,Dodge Center,55927,Dodge
1307162471,1020 Quant Ave N,Marine On Saint Croix,55047,Washington
1091717495,28215 Co 53 Blvd,Red Wing,55066,Goodhue
1100315010,30847 County 60,Browerville,56438,Todd
1139675204,26999 Galaxie Ave,Farmington,55024,Dakota
1013040915,22180 Warner Lane ,Elysian,56028,Le Sueur
1139679348,29770 Hayes Ave,Northfield,55057,Dakota
1413812591,16749 Cram LN,Waterville,56096,Le Sueur
1013040878,22284 Warner Lane,Elysian,56028,Le Sueur
1013852207,17775 102nd ST,Young America,55397,Carver
1013055256,50355 Moores Lane,Waterville,56096,Le Sueur
1100317533,31353 Little Pine Lane,Cushing,56443,Todd
1307166238,13565 116th St N,Stillwater,55082,Washington
1025441049,45597 206th Lane,Arlington,55307,Sibley
1307166263,13787 116th St N,Stillwater,55082,Washington
1287447124,11758 Us Highway 218,Lyle,55953,Mower
1013040645,50237 251st Ave,Madison Lake,56063,Le Sueur
1013040941,22236 Warner Ln,Elysian,56028,Le Sueur
1013814914,9375 150th street,Cologne,55322,Carver
1287391182,18546 Cable Avenue,Lester Prairie,55354,McLeod
1112870831,24644 little trout valley road,Winona,55987,Winona
1013055152,49609 193rd Ave,Waterville,56096,Le Sueur
1293548150,39609 STATE HIGHWAY 34,Detroit Lakes,56501,Becker
1307166042,10830 180th St N,Forest Lake,55025,Washington
1100311177,11675 280th St,Carlos,56319,Todd
1031559970,14197 210th Ave,Little Falls,56345,Morrison
1013055277,50320 Sunset Ln,Waterville,56096,Le Sueur
1013836809,18225 142nd st,Hamburg,55339,Carver
1287573917,1358 530th Street,Wood Lake,56297,Yellow Medicine
1287568433,4785 170th Ave,Cottonwood,56229,Yellow Medicine
1527823472,18064 Prairie View Drive,Brainerd,56401,Crow Wing
1042386123,39388 240TH STREET,Lamberton,56152,Cottonwood
1345873396,7654 Little Fork River Road ,Cook,55723,St. Louis
1062138909,15780 388th Ave,Waseca,56093,Waseca
1293548416,21680 E HEIGHT OF LAND DR,Detroit Lakes,56501,Becker
1315220392,4956 60th Ave SW,Rochester,55902,Olmsted
1345938083,2741 Russell Rd,Duluth,55810,St. Louis
1100317504,33223 Lone Pine Dr,Browerville,56438,Todd
1112846183,19722 County Road 28,Altura,55910,Winona
1100318025,27416 County 18,Browerville,56438,Todd
1013040903,21894 Woodduck Lane,Elysian,56028,Le Sueur
1013848848,1450 CO RD 10 N,Watertown,55388,Carver
1013043765,1011 north Cordova ave,Le Center,56057,Le Sueur
1031579462,15358 253rd St,Fort Ripley,56449,Morrison
1031559878,11224 River Dr,Little Falls,56345,Morrison
1413829397,33221 Loon Drive,Cushing,56443,Todd
1013839177,13030 Highway 212,Norwood Young America,55368,Carver
1025441465,17688 Salem Avenue,Green Isle,55338,Sibley
1023870442,9882 210TH AVE SW,Renville,56284,Kandiyohi
1013055915,16983 Dickenson Lane,Waterville,56096,Le Sueur
1013055878,16787 Cram Lane,Waterville,56096,Le Sueur
1091702210,40199 County 14 Blvd,Kenyon,55946,Goodhue
1137420091,26655 362nd lane,Aitkin,56431,Aitkin
1086343810,"5641 NW 52nd Ave, ",Medford,55049,Steele
1293639060,20895 610th ave,Eagle Lake,56024,Blue Earth
1287544633,2383 241st St.,Tracy,56175,Murray
1038070749,40971 County Rd 15,Saint Peter,56082,Nicollet
1100316431,21756 County 10,Long Prairie,56347,Todd
1100317518,33160 Lone Pine Dr,Browerville,56438,Todd
1013039166,24979 440th St,Le Center,56057,Le Sueur
1604670142,3981 195th Ave NE,New London,56273,Kandiyohi
1013837330,12615 52nd street ,Mayer,55360,Carver
1100313902,30171 county 89,Browerville,56438,Todd
1139673303,23755 Fairgreen Avenue,Farmington,55024,Dakota
1013042795,1082 Le Center Street,Le Center,56057,Le Sueur
1293548393,39704 JAHNKE RD,Detroit Lakes,56501,Becker
1031562111,17431 153rd St.,Little Falls,56345,Morrison
1307166041,18180 Manning trail north,Marine On St. Croix,55047,Washington
1112869099,24043 Homer Valley Rd,Winona,55987,Winona
1112846517,16667 County Road 31,Altura,55910,Winona
1116065792,15554 608th Street,Kellogg,55945,Wabasha
1013055198,49431 193rd Avenue,Waterville,56096,Le Sueur
1086624257,72831 CSAH 24,Dassel,55325,Meeker
1100314913,22230 GATEWAY DR,Osakis,56360,Todd
1138762102,34755 County Hwy 41,Oslo,56744,Marshall
1100333862,29129 County 18,Browerville,56438,Todd
1287447944,14219 Mower Fillmore Rd,Le Roy,55951,Mower
1116072513,63202 Highway 63,Zumbro Falls,55991,Wabasha
1013040898,1162 Lake Francis Lane,Elysian,56028,Le Sueur
1100313984,27635 225th Ave,Long Prairie,56347,Todd
1100316453,22774 177th Ave,Long Prairie,56347,Todd
1013833067,16785 COUNTY ROAD 53,Cologne,55322,Carver
1013843984,11180 66th Street,Waconia,55387,Carver
1137430661,28290 Kestrel Ave,Sturgeon Lake,55783,Aitkin
1013839741,12515 Salem Ave,Norwood Young America,55368,Carver
1013839227,17450 134th St,Hamburg,55339,Carver
1345903793,9617 Swan Lake Road,Alborn,55702,St. Louis
1013832426,12780 Kelly Ave,Chaska,55318,Carver
1031560589,18480 hwy 10,Little Falls,56345,Morrison
1315211921,5925 County Road 105 NW,Byron,55920,Olmsted
1114832630,6712 80th St.,Brainard,56401,Crow Wing
1013826186,12825 Kelly Ave,Chaska,55318,Carver
1307168602,18855 Manning Trail N,Marine On St. Croix,55047,Washington
1013814917,9285 150th St.,Cologne,55322,Carver
1345925778,95282 Portage Bay,Tower,55790,St. Louis
1314242119,12691 Jarvis Ave NW,Annandale,55302,Wright
1307181764,4837 Pheasant Ct S,Afton,55001,Washington
1345952727,11810 Fine Lakes Road ,Floodwood,55736,St. Louis
1293618374,3120 River Meadows Dr,Mankato,56001,Blue Earth
1013055332,50074 175th ave,Waterville,56096,Le Sueur
1413832333,4798 Breezy Point Road,Duluth,55804,St. Louis
1031571115,16820 330th Avenue,Pierz,56364,Morrison
1013040656,24471 Quiet rd,Elysian,56028,Le Sueur
1345938367,10121 Whiteside Road ,Buhl,55713,St. Louis
1031559876,9642 110th St,Little Falls,56345,Morrison
1013056527,14670 490th St,Waterville,56096,Le Sueur
1013839405,16780 County Road 34 ,Norwood Young America,55368,Carver
1137418539,61718 GREAT RIVER RD,Jacobson,55752,Aitkin
1135256875,11508 Mentzer Trail,Lindstrom,55045,Chisago
1013047188,30798 Pumpkin Hill Road,Le Sueur,56058,Le Sueur
1091719421,25510 Old Church Rd,Red Wing,55066,Goodhue
1013832429,12620 Kelly Ave,Chaska,55318,Carver
1013843992,11445 66th St,Waconia,55387,Carver
1100314560,22535 GATEWAY DR,Osakis,56360,Todd
1112869114,24305 County Road 15,Winona,55987,Winona
1114816097,7087 Browns Ln,Brainerd,56401,Crow Wing
1114877079,11683 Sorenson Lake Rd. ,Merrifield,56465,Crow Wing
1013814773,8320 County Road 52,Carver,55315,Carver
1345888715,4782 Breezy Point Rd,Duluth,55803,St. Louis
1101175732,1855 County Road 24,Minneota,56264,Lyon
1114838297,15092 Ninebark Drive ,Baxter,56425,Crow Wing
1100317469,34639 Leisure Dr.,Cushing,56443,Todd
1315216623,8721 150th Ave SE,Chatfield,55923,Olmsted
1013055907,17197 Dickenson Lane,Waterville,55096,Le Sueur
1091704128,29042 Hill Rd,Cannon Falls,55009,Goodhue
1031570139,19917 HIGHWAY 25 ,Pierz,56364,Morrison
1101175204,2527 170th Ave,Lynd,56157,Lyon
1604165417,11360 Aldrin Loop,Sauk Centre,56378,Todd
1307166503,20361 Ostrum Ave N,Marine On St Croix,55047,Washington
1031570706,18776 305th Ave,Pierz,56364,Morrison
1114819059,14099 State Hwy 210,Brainerd,56401,Crow Wing
1013040612,49312 Elysian Rd,Elysian,56028,Le Sueur
1031566437,13242 140TH AVE,Little Falls,56345,Morrison
1293642489,21387 489th Ave ,Lake Crystal,56055,Blue Earth
1062140691,16251 Old Hwy 14,Waseca,56093,Waseca
1025446782,25294 361 Avenue ,Henderson,56044,Sibley
1013843999,11055 66th st,Waconia,55387,Carver
1100317625,33331 loon trail,Cushing,56443,Todd
1031570989,19737 305th Ave,Pierz,56364,Morrison
1413812202,51286 Lakeland drive,Elysian,56028,Le Sueur
1062139939,35300 170th Street,Waseca,56093,Waseca
1100317514,31980 Lupine trail ,Cushing,56443,Todd
1139685298,3330 145th Street East,Rosemount,55068,Dakota
1060306939,1599 270th ave,Mora,55051,Kanabec
1413812207,32891 Obrien Ln,Saint Peter,56082,Le Sueur
358,32896 OBrien Lane,Saint Peter,56082,Le Sueur
1413812469,32247 480th St.,Kasota,56050,Le Sueur
1315220906,7615 Hwy 63 N,Rochester,55906,Olmsted
1345941012,7288 N E Birch Isle Road,Duluth,55803,St. Louis
1013813586,8580 County Road 50,Carver,55315,Carver
1063358074,10216 COUNTY HIGHWAY 34,Claremont,55924,Dodge
1013055094,48833 191st Ave,Waterville,56096,Le Sueur
1604886638,66650 140th Street,Adams,55909,Mower
1605532438,5094 Otter River Road,Duluth,55803,St. Louis
1604320377,29948 Prairie Sage LN,Le Sueur,56058,Le Sueur
1604790547,3710 Silver Creek Rd NE,Rochester,55901,Olmsted
1345913780,3599 PRINDLE RD,Duluth,55803,St. Louis
1013047758,31403 360th Street,Le Sueur,56058,Le Sueur
1605535253,95241 Meads Island,Tower,55790,St. Louis
1527720068,2057 Lindsey Road,Cook,55723,St. Louis
1100316328,21120 county 86,Long Prairie,56347,Todd
1566641031,23480 county road 113,Detroit Lakes,56501,Becker
1527810147,21590 East Height of Land Dr.,Detroit Lakes,56501,Becker
1062141935,36815 25th street,Janesville,56048,Waseca
1527810145,21507 E HEIGHT OF LAND DR,Detroit Lakes,56501,Becker
1345863023,3120 Van Vac Rd,Ely,55731,St. Louis
1345944505,10097 Williams Road,Britt,55710,St. Louis
1605534375,7861 Birchview Drive,Britt,55710,St. Louis
1114821566,714 Mill Ave,Brainerd,56401,Crow Wing
1029529469,10030 Jensen Trail,Isabella,55607,Lake
1413811876,6702 Thunder Rd,Finland,55603,Lake
1013828944,110650 Village Road,Chaska,55318,Hennepin
1293629075,20680 OLD HWY 66,Mankato,56001,Blue Earth
1013045048,40628 State Highway 13,Montgomery,56069,Le Sueur
1413811604,1096 E Stanley Rd,Two Harbors,55616,Lake
1101181984,3264 County Road 10,Cottonwood,56229,Lyon
1107702025,63349 270TH ST,Chokio,56221,Stevens
1314231889,4238 107TH St NW,Maple Lake,55358,Wright
26,14586 Alabama Ave,Savage,55378,Scott
37,4140 58th St. South,Fargo,58104,Cass
60,1400 East 9th Avenue,Longmont,80504,Le Sueur
226,5970 Blesner Lake Rd,Finland,55603,Lake
234,2455 Schweiger Rd,Cook,55723,St. Louis
238,1037 East Stanley Road,Two Harbors,55616,Lake
240,2733 Sheridan Blvd,Lincoln,68502,Crow Wing
265,1816 TALL OAKS DR,Wausau,54403,St. Louis
278,1397 Iowa River Road,Riverside,52327,Washington
300,1202 Burbank,Grand Forks,58201,St. Louis
363,31535 County Road 1,La Crescent,55947,Winona
364,Spencer road,Bemidji,56601,Beltrami 
366,328 20th St SE,Rochester,55904,Olmsted
369,Central Minneapolis,Minneapolis,55401,Hennepin
370,105 Ave NE,Eyota,55934,Olmsted
371,4758 Canfield Bay Lake Vermilion,Tower,55124,St. Louis
384,16767 State 87,Park Rapids,56470,Hubbard
389,2938 Sawmill Road,Waubun,56589,Mahnomen
398,5192 Otter River Road,Duluth,55803,St. Louis
408,9340 Cramer Rd,Finland,55603,Lake
447,10727 Highway 11,Birchdale,56629,Koochiching
448,15617 Schieber Road,Caledonia,55921,Houston
456,All of warsaw Towship,Dennison,55018,Goodhue
471,20765 Quinnell Ave N,Scandia,55073,Washington
504,38500 Twelve Lake Road,Pelican Rapids,56572,Otter Tail
523,2455 Kandi-Chippewa Line SW,Raymond,56282,Kandiyohi
526,11878,Little Falls,56345,Morrison
534,18806 Beach Lane,Kilkenney,56052,Le Sueur
542,"49200 MN Hwy 48, lot F5-45",Cloverdale,54037,Pine
4017,12127 Scott Lake Rd.,Deerwood,56401,Crow Wing
582,25873 highway 25 ,Pierz,56364,Morrison
586,35993 Northern Drive,Cushing,56443,Todd
602,22897 mollie lake rd ,Nisswa,56468,Crow Wing
611,20834 238th St,Pierz,56364,Morrison
612,10207 Heron Street,Brainerd,56401,Crow Wing
637,29285 220th Street,Long Prairie,56347,Todd
641,6th Ave ne,Hayfield,55940,Dodge
657,28490 290th Avenue East,Waubun,56589,Mahnomen
690,5782 Town Line Rd,Duluth,55803,St. Louis
694,5788 County Road 45,Brainerd,56401,Crow Wing
698,20748 Fitland Loop,Long Prairie,56347,Todd
794,21264 South Shore Lane,Perry Lake Township,56441,Crow Wing
809,8311 E Rose Lake Dr,Canyon,55717,St. Louis
814,3823 220th St,Montevideo,56265,Lac qui Parle
815,30351 US Hwy 10,Frazee,56544,Becker
817,10821 Hayes road ,Hibbing,55746,St. Louis
838,9252 Ponds Edge Trail,Brainerd,56401,Crow Wing
851,16915 May Ave N,Marine On St Croix,55047,Washington
853,21516 S Shore Ln,Crosby,56441,Crow Wing
858,5419 Dillon Ave NW,Maple Lake,55358,Wright
863,7584 500th St,Graceville,56240,Traverse
864,42091 Harder Ave ,Harris,55032,Chisago
873,2904 County Rd 4,Waubun,56589,Mahnomen
875,2494 105th Street SW,Montrose,55363,Wright
884,195 Ash Street,Dawson,56232,Lac qui Parle
900,63349 270th ST,Chokio,56221,Stevens
914,520th ave,Windom,56101,Jackson
915,390th Avenue,Okabena,56161,Jackson
924,30551 County 16,Cushing,56443,Todd
948,30424 Lightning Pass ,Cushing,56443,Todd
955,29161 CR 25,Long Prairie,56347,Todd
960,13523 County Rd 2,Brainerd,56401,Crow Wing
984,17574 Prairie View Drive,Brainerd,56401,Crow Wing
991,16004 Content Lane,Deerwood,56444,Crow Wing
994,35674 Leisure Drive,Cushing,56443,Todd
1004,21804 County 88,Browerville,56438,Todd
1137418534,62620 GREAT RIVER RD BLDG 2,Jacobson,55752,Aitkin
